TRANSIT 5B-5 (OPS 6582) 
1 00965U 64083D   19067.84554650  .00000044  00000-0  48556-4 0  9991
2 00965  90.0185 192.6588 0042252 125.3630  41.0888 13.56726705683377
OSCAR 7 (AO-7)          
1 07530U 74089B   19068.52736331 -.00000046  00000-0 -97390-5 0  9992
2 07530 101.7314  37.2780 0012061 180.9637 288.9923 12.53636949 27845
UOSAT 2 (UO-11)         
1 14781U 84021B   19068.22712485  .00000033  00000-0  10240-4 0  9998
2 14781  97.6219  97.6861 0007089 297.6704  62.3791 14.83068064883729
NOAA 9                  
1 15427U 84123A   19068.48225170  .00000016  00000-0  30874-4 0  9993
2 15427  98.8812  17.6535 0014335 326.9267 140.6267 14.16061386767579
LUSAT (LO-19)           
1 20442U 90005G   19068.41955300 -.00000010  00000-0  12451-4 0  9996
2 20442  98.6393  10.6448 0012921  88.0071 272.2592 14.32918841521877
ITAMSAT (IO-26)         
1 22826U 93061D   19068.21317711 -.00000006  00000-0  15414-4 0  9992
2 22826  98.8900  54.5785 0007890 285.9388  74.0924 14.30385807327644
RADIO ROSTO (RS-15)     
1 23439U 94085A   19067.81964109 -.00000041  00000-0  35169-4 0  9992
2 23439  64.8148 280.8692 0148553 132.7379 356.5529 11.27568181996400
JAS-2 (FO-29)           
1 24278U 96046B   19068.46895090 -.00000041  00000-0 -85760-5 0  9991
2 24278  98.5214 235.6876 0351049 142.4482 220.1741 13.53089383114116
NOAA 15                 
1 25338U 98030A   19068.58122619 -.00000002  00000-0  17741-4 0  9996
2 25338  98.7559  89.9846 0010681 171.2409 188.8959 14.25897236 82847
TECHSAT 1B (GO-32)      
1 25397U 98043D   19068.41478859 -.00000007  00000-0  16090-4 0  9998
2 25397  98.6798   9.8388 0001287  23.5268 336.5970 14.23661281 73462
ISS (ZARYA)             
1 25544U 98067A   19069.03743463  .00002327  00000-0  44365-4 0  9995
2 25544  51.6426 134.1739 0004026  91.9284 340.1753 15.52800433159851
ORSTED                  
1 25635U 99008B   19068.38610340  .00000048  00000-0  18959-4 0  9994
2 25635  96.4699 196.2215 0139730  37.8312 323.2608 14.48133747 57434
PCSAT (NO-44)           
1 26931U 01043C   19068.54411172 -.00000035  00000-0  18268-4 0  9996
2 26931  67.0494 264.6882 0005359 273.6824  86.3665 14.30534484910508
SAUDISAT 1C (SO-50)     
1 27607U 02058C   19068.15469437 -.00000031  00000-0  16513-4 0  9995
2 27607  64.5566   0.0273 0082303 275.8491  83.3234 14.75525311872059
CUTE-1 (CO-55)          
1 27844U 03031E   19068.76431412  .00000030  00000-0  33154-4 0  9997
2 27844  98.6869  78.4740 0009151 328.9919  31.0718 14.22163662813948
CUBESAT XI-IV (CO-57)   
1 27848U 03031J   19068.86854461  .00000022  00000-0  30088-4 0  9999
2 27848  98.6948  79.0534 0009237 340.5217  19.5606 14.21760848813815
MOZHAYETS 4 (RS-22)     
1 27939U 03042A   19068.81289762  .00000019  00000-0  11999-4 0  9999
2 27939  98.0227 206.6962 0013617  33.2601 326.9465 14.66758981825751
INMARSAT 4-F1           
1 28628U 05009A   19068.65106015 -.00000264  00000-0  00000+0 0  9990
2 28628   2.9615  21.0129 0003011 341.1805 182.7182  1.00271921 51023
NOAA 18                 
1 28654U 05018A   19068.61883654  .00000065  00000-0  60012-4 0  9998
2 28654  99.1108 114.0049 0015266 102.0398 258.2485 14.12408346711250
CUBESAT XI 5            
1 28895U 05043F   19068.39922472  .00000091  00000-0  26413-4 0  9996
2 28895  97.9416 214.6988 0015714 314.5645  45.4274 14.63636164712662
METOP-A                 
1 29499U 06044A   19068.87781250 -.00000002  00000-0  18487-4 0  9994
2 29499  98.5888 124.8618 0001835 124.5333 235.9627 14.21543792642744
CARTOSAT-2 (IRS-P7)     
1 29710U 07001B   19068.79109631 -.00000123  00000-0 -96917-5 0  9992
2 29710  97.9868 128.7015 0001582  90.5030 269.6348 14.78649993656381
FALCONSAT 3             
1 30776U 07006E   19068.15981094  .00002837  00000-0  81174-4 0  9992
2 30776  35.4367  18.4454 0003930 269.4290  90.5986 15.35704454665064
CAPE1                   
1 31130U 07012P   19067.81741711  .00000163  00000-0  44843-4 0  9998
2 31130  98.1541  10.1290 0097134  44.6416 316.2551 14.56388254630884
CARTOSAT-2A             
1 32783U 08021A   19068.76960441 -.00000168  00000-0 -15704-4 0  9993
2 32783  97.9861 129.0569 0014589  77.1916 283.0894 14.78654032586323
CUTE-1.7+APD II (CO-65) 
1 32785U 08021C   19068.23085793  .00000163  00000-0  23259-4 0  9992
2 32785  97.5489  72.7400 0011795 235.7437 124.2663 14.88259501588595
COMPASS-1               
1 32787U 08021E   19068.02588632  .00000087  00000-0  13436-4 0  9992
2 32787  97.5130  84.4869 0012279 186.1058 174.0015 14.93270618589475
AAUSAT-II (CUBESAT-2)   
1 32788U 08021F   19068.02568076  .00000124  00000-0  16478-4 0  9994
2 32788  97.5041  88.2235 0011948 173.4640 186.6739 14.94621303589737
DELFI-C3 (DO-64)        
1 32789U 08021G   19068.08271552  .00001448  00000-0  10138-3 0  9997
2 32789  97.4780 120.7590 0013900 111.8518 248.4190 15.06702313591661
SEEDS II (CO-66)        
1 32791U 08021J   19068.01654850  .00000211  00000-0  26868-4 0  9994
2 32791  97.5304  78.3884 0012538 210.7804 149.2681 14.90747762588965
YUBILEINY (RS-30)       
1 32953U 08025A   19068.71762283  .00000020  00000-0  75656-4 0  9992
2 32953  82.5036 207.5400 0018804 352.7022   7.3777 12.43088086489763
FENGYUN 3A              
1 32958U 08026A   19068.84694205  .00000007  00000-0  22585-4 0  9998
2 32958  98.3798  74.5940 0008331 245.9776 114.0531 14.19733509558811
PRISM (HITOMI)          
1 33493U 09002B   19068.70469612  .00000773  00000-0  73442-4 0  9993
2 33493  98.1229 345.8363 0015761 153.0977 207.1064 14.96530781550047
STARS                   
1 33498U 09002G   19068.54463131  .00000159  00000-0  29163-4 0  9999
2 33498  98.3173 274.3723 0011939 128.3984 231.8300 14.78941844545052
KKS-1 (KISEKI)          
1 33499U 09002H   19068.55872414  .00000066  00000-0  17733-4 0  9996
2 33499  98.3547 264.0003 0009544 161.2965 198.8596 14.75412174544312
NOAA 19                 
1 33591U 09005A   19068.59593558  .00000038  00000-0  45857-4 0  9992
2 33591  99.1738  57.3068 0013163 304.6150  55.3778 14.12337962519639
SWISSCUBE               
1 35932U 09051B   19068.73231113  .00000098  00000-0  33068-4 0  9993
2 35932  98.5747 231.8137 0008762 113.3663 246.8457 14.56250700502086
BEESAT                  
1 35933U 09051C   19068.39807860  .00000087  00000-0  30571-4 0  9998
2 35933  98.5779 233.1763 0006879 124.5162 235.6685 14.56344121502144
ITUPSAT 1               
1 35935U 09051E   19067.98504933  .00000058  00000-0  24496-4 0  9996
2 35935  98.5891 232.9959 0009175 123.9402 236.2668 14.55508585501846
XIWANG-1 (HO-68)        
1 36122U 09072B   19068.42144779 -.00000007  00000-0  93401-4 0  9993
2 36122 100.0736  75.5643 0006837 215.1870 144.8797 13.16349062443557
CARTOSAT-2B             
1 36795U 10035A   19068.80625082  .00000065  00000-0  16014-4 0  9991
2 36795  97.9842 128.7646 0015539 143.6421 216.5849 14.78658475467376
TISAT 1                 
1 36799U 10035E   19067.88062106  .00000424  00000-0  48975-4 0  9994
2 36799  98.1394 216.7524 0013419  63.5861 296.6731 14.91020307469598
FENGYUN 3B (FENG-YUN-3B)
1 37214U 10059A   19068.81176813 -.00000014  00000-0  15792-4 0  9995
2 37214  98.9869  39.9065 0017402 143.7363 216.4995 14.15908455431782
JUGNU                   
1 37839U 11058B   19068.81070458  .00000297  00000-0  16285-4 0  9996
2 37839  19.9603 226.5299 0018938 295.3535 199.8086 14.12643177382972
SRMSAT                  
1 37841U 11058D   19068.01277432  .00000313  00000-0  26548-4 0  9994
2 37841  19.9719 286.0428 0011865 159.5825   1.6440 14.10625891382327
M-CUBED & EXP-1 PRIME   
1 37855U 11061F   19068.83354258  .00001006  00000-0  58447-4 0  9998
2 37855 101.7276 272.5921 0174343  15.6876 344.9642 15.05181366401606
ALMASAT-1               
1 38078U 12006B   19068.77479402  .00024345  40189-5  16699-3 0  9998
2 38078  69.4302 193.6519 0184928  59.0692  95.7273 15.55653228381758
HORYU 2                 
1 38340U 12025D   19068.54580834  .00000140  00000-0  28467-4 0  9995
2 38340  98.3420 104.0346 0012821  87.6444 272.6232 14.75675987366245
METOP-B                 
1 38771U 12049A   19068.87991634 -.00000007  00000-0  16950-4 0  9996
2 38771  98.7169 129.5526 0000552 165.3664 313.5307 14.21482649335870
SARAL                   
1 39086U 13009A   19067.92510131 -.00000006  00000-0  13969-4 0  9993
2 39086  98.5404 255.6875 0001392 140.6582 219.4703 14.32033070315230
AAUSAT3                 
1 39087U 13009B   19068.77754528  .00000090  00000-0  46185-4 0  9996
2 39087  98.4969 276.6847 0011653 225.1306 134.8943 14.35700721315998
STRAND-1                
1 39090U 13009E   19068.89750562 -.00000005  00000-0  13470-4 0  9995
2 39090  98.4981 276.4837 0008295 223.5519 136.5012 14.35073139315935
BRITE-AUSTRIA           
1 39091U 13009F   19068.19456789 -.00000014  00000-0  10287-4 0  9996
2 39091  98.4957 275.0051 0009553 234.3660 125.6636 14.35101406315858
UNIBRITE (CANX-3A)      
1 39092U 13009G   19068.80697761 -.00000004  00000-0  13795-4 0  9998
2 39092  98.4974 275.2639 0008512 225.1062 134.9433 14.34975350315911
SOMP                    
1 39134U 13015E   19068.17011511  .00001276  00000-0  68330-4 0  9991
2 39134  64.8650 349.2778 0021041 319.6183  40.3381 15.19878905325169
BEESAT-3                
1 39135U 13015F   19068.17732028  .00000789  00000-0  49280-4 0  9996
2 39135  64.8709   6.1562 0009808 288.9180  71.0883 15.17247450324842
BEESAT-2                
1 39136U 13015G   19068.17684348  .00001031  00000-0  62301-4 0  9998
2 39136  64.8715   9.6708 0011190 290.8536  69.1391 15.16687783324774
NEE-01 PEGASUS (NEE-01) 
1 39151U 13018B   19068.74097295  .00000152  00000-0  27083-4 0  9991
2 39151  97.9691 165.9241 0017552 164.6011 195.5739 14.80007035316792
CUBEBUG-1 (CAPITAN BETO)
1 39153U 13018D   19068.72546116  .00000190  00000-0  31655-4 0  9994
2 39153  97.9748 167.4533 0017481 161.5939 198.5909 14.80521945316876
